[{"OBJECT_NAME":"STARLINK-31927","OBJECT_ID":"2024-097C","EPOCH":"2026-03-09T22:21:49.760352","MEAN_MOTION":15.27566873,"ECCENTRICITY":0.00011387,"INCLINATION":43.0003,"RA_OF_ASC_NODE":273.0098,"ARG_OF_PERICENTER":263.7418,"MEAN_ANOMALY":96.3304,"EPHEMERIS_TYPE":0,"CLASSIFICATION_TYPE":"U","NORAD_CAT_ID":59837,"ELEMENT_SET_NO":999,"REV_AT_EPOCH":10195,"BSTAR":-3.035175e-5,"MEAN_MOTION_DOT":-1.097e-5,"MEAN_MOTION_DDOT":0},{"OBJECT_NAME":"PHISAT 2","OBJECT_ID":"2024-149C","EPOCH":"2026-03-09T18:55:12.732384","MEAN_MOTION":15.29548632,"ECCENTRICITY":0.00011753,"INCLINATION":97.3806,"RA_OF_ASC_NODE":148.6498,"ARG_OF_PERICENTER":168.623,"MEAN_ANOMALY":191.5037,"EPHEMERIS_TYPE":0,"CLASSIFICATION_TYPE":"U","NORAD_CAT_ID":60470,"ELEMENT_SET_NO":999,"REV_AT_EPOCH":8679,"BSTAR":0.00031420974,"MEAN_MOTION_DOT":8.925e-5,"MEAN_MOTION_DDOT":0}]
